ORBCOMM-X               
1 21576U 91050C   24353.13926719  .00000834  00000+0  26195-3 0  9991
2 21576  98.3690  57.2435 0004036  30.7764 329.3663 14.42980399756003
ORBCOMM FM01            
1 23545U 95017A   24353.20804975  .00011495  00000+0  13201-2 0  9991
2 23545  69.9633 164.1747 0006799 253.3895 106.6511 14.85998100585589
ORBCOMM FM02            
1 23546U 95017B   24353.54583552  .00011927  00000+0  13692-2 0  9998
2 23546  69.9644 183.0351 0008577 245.9991 114.0264 14.85989342585275
ORBCOMM FM08            
1 25112U 97084A   24353.14921609  .00004084  00000+0  12100-2 0  9999
2 25112  45.0119 156.2067 0005488  65.4799 294.6623 14.44572405415182
ORBCOMM FM10            
1 25113U 97084B   24353.17451350  .00003441  00000+0  10298-2 0  9996
2 25113  45.0132 158.1690 0003150  25.5471 334.5535 14.44413091590331
ORBCOMM FM11            
1 25114U 97084C   24353.14917559  .00003772  00000+0  11297-2 0  9999
2 25114  45.0117 158.6116 0004028  26.6096 333.4961 14.44191108415297
ORBCOMM FM12            
1 25115U 97084D   24353.18262553  .00003055  00000+0  92322-3 0  9994
2 25115  45.0128 158.2109 0003036  26.8413 333.2594 14.44194390415095
ORBCOMM FM09            
1 25116U 97084E   24353.20138175  .00003190  00000+0  96342-3 0  9996
2 25116  45.0130 158.8966 0004243   5.2135 354.8759 14.44113303415300
