<?xml version="1.0" encoding="UTF-8"?>
<ndm xmlns:xsi="http://www.w3.org/2001/XMLSchema-instance" xsi:noNamespaceSchemaLocation="https://sanaregistry.org/r/ndmxml_unqualified/ndmxml-2.0.0-master-2.0.xsd">
<omm id="CCSDS_OMM_VERS" version="2.0">
<header><CREATION_DATE/><ORIGINATOR/></header><body><segment><metadata><OBJECT_NAME>ORBCOMM-X</OBJECT_NAME><OBJECT_ID>1991-050C</OBJECT_ID><CENTER_NAME>EARTH</CENTER_NAME><REF_FRAME>TEME</REF_FRAME><TIME_SYSTEM>UTC</TIME_SYSTEM><MEAN_ELEMENT_THEORY>SGP4</MEAN_ELEMENT_THEORY></metadata><data><meanElements><EPOCH>2024-12-18T03:20:32.685216</EPOCH><MEAN_MOTION>14.42980399</MEAN_MOTION><ECCENTRICITY>.0004036</ECCENTRICITY><INCLINATION>98.3690</INCLINATION><RA_OF_ASC_NODE>57.2435</RA_OF_ASC_NODE><ARG_OF_PERICENTER>30.7764</ARG_OF_PERICENTER><MEAN_ANOMALY>329.3663</MEAN_ANOMALY></meanElements><tleParameters><EPHEMERIS_TYPE>0</EPHEMERIS_TYPE><CLASSIFICATION_TYPE>U</CLASSIFICATION_TYPE><NORAD_CAT_ID>21576</NORAD_CAT_ID><ELEMENT_SET_NO>999</ELEMENT_SET_NO><REV_AT_EPOCH>75600</REV_AT_EPOCH><BSTAR>.26195E-3</BSTAR><MEAN_MOTION_DOT>.834E-5</MEAN_MOTION_DOT><MEAN_MOTION_DDOT>0</MEAN_MOTION_DDOT></tleParameters></data></segment></body></omm>
<omm id="CCSDS_OMM_VERS" version="2.0">
<header><CREATION_DATE/><ORIGINATOR/></header><body><segment><metadata><OBJECT_NAME>ORBCOMM FM01</OBJECT_NAME><OBJECT_ID>1995-017A</OBJECT_ID><CENTER_NAME>EARTH</CENTER_NAME><REF_FRAME>TEME</REF_FRAME><TIME_SYSTEM>UTC</TIME_SYSTEM><MEAN_ELEMENT_THEORY>SGP4</MEAN_ELEMENT_THEORY></metadata><data><meanElements><EPOCH>2024-12-18T04:59:35.498400</EPOCH><MEAN_MOTION>14.85998100</MEAN_MOTION><ECCENTRICITY>.0006799</ECCENTRICITY><INCLINATION>69.9633</INCLINATION><RA_OF_ASC_NODE>164.1747</RA_OF_ASC_NODE><ARG_OF_PERICENTER>253.3895</ARG_OF_PERICENTER><MEAN_ANOMALY>106.6511</MEAN_ANOMALY></meanElements><tleParameters><EPHEMERIS_TYPE>0</EPHEMERIS_TYPE><CLASSIFICATION_TYPE>U</CLASSIFICATION_TYPE><NORAD_CAT_ID>23545</NORAD_CAT_ID><ELEMENT_SET_NO>999</ELEMENT_SET_NO><REV_AT_EPOCH>58558</REV_AT_EPOCH><BSTAR>.13201E-2</BSTAR><MEAN_MOTION_DOT>.11495E-3</MEAN_MOTION_DOT><MEAN_MOTION_DDOT>0</MEAN_MOTION_DDOT></tleParameters></data></segment></body></omm>
<omm id="CCSDS_OMM_VERS" version="2.0">
<header><CREATION_DATE/><ORIGINATOR/></header><body><segment><metadata><OBJECT_NAME>ORBCOMM FM02</OBJECT_NAME><OBJECT_ID>1995-017B</OBJECT_ID><CENTER_NAME>EARTH</CENTER_NAME><REF_FRAME>TEME</REF_FRAME><TIME_SYSTEM>UTC</TIME_SYSTEM><MEAN_ELEMENT_THEORY>SGP4</MEAN_ELEMENT_THEORY></metadata><data><meanElements><EPOCH>2024-12-18T13:06:00.188928</EPOCH><MEAN_MOTION>14.85989342</MEAN_MOTION><ECCENTRICITY>.0008577</ECCENTRICITY><INCLINATION>69.9644</INCLINATION><RA_OF_ASC_NODE>183.0351</RA_OF_ASC_NODE><ARG_OF_PERICENTER>245.9991</ARG_OF_PERICENTER><MEAN_ANOMALY>114.0264</MEAN_ANOMALY></meanElements><tleParameters><EPHEMERIS_TYPE>0</EPHEMERIS_TYPE><CLASSIFICATION_TYPE>U</CLASSIFICATION_TYPE><NORAD_CAT_ID>23546</NORAD_CAT_ID><ELEMENT_SET_NO>999</ELEMENT_SET_NO><REV_AT_EPOCH>58527</REV_AT_EPOCH><BSTAR>.13692E-2</BSTAR><MEAN_MOTION_DOT>.11927E-3</MEAN_MOTION_DOT><MEAN_MOTION_DDOT>0</MEAN_MOTION_DDOT></tleParameters></data></segment></body></omm>
<omm id="CCSDS_OMM_VERS" version="2.0">
<header><CREATION_DATE/><ORIGINATOR/></header><body><segment><metadata><OBJECT_NAME>ORBCOMM FM08</OBJECT_NAME><OBJECT_ID>1997-084A</OBJECT_ID><CENTER_NAME>EARTH</CENTER_NAME><REF_FRAME>TEME</REF_FRAME><TIME_SYSTEM>UTC</TIME_SYSTEM><MEAN_ELEMENT_THEORY>SGP4</MEAN_ELEMENT_THEORY></metadata><data><meanElements><EPOCH>2024-12-18T03:34:52.270176</EPOCH><MEAN_MOTION>14.44572405</MEAN_MOTION><ECCENTRICITY>.0005488</ECCENTRICITY><INCLINATION>45.0119</INCLINATION><RA_OF_ASC_NODE>156.2067</RA_OF_ASC_NODE><ARG_OF_PERICENTER>65.4799</ARG_OF_PERICENTER><MEAN_ANOMALY>294.6623</MEAN_ANOMALY></meanElements><tleParameters><EPHEMERIS_TYPE>0</EPHEMERIS_TYPE><CLASSIFICATION_TYPE>U</CLASSIFICATION_TYPE><NORAD_CAT_ID>25112</NORAD_CAT_ID><ELEMENT_SET_NO>999</ELEMENT_SET_NO><REV_AT_EPOCH>41518</REV_AT_EPOCH><BSTAR>.121E-2</BSTAR><MEAN_MOTION_DOT>.4084E-4</MEAN_MOTION_DOT><MEAN_MOTION_DDOT>0</MEAN_MOTION_DDOT></tleParameters></data></segment></body></omm>
<omm id="CCSDS_OMM_VERS" version="2.0">
<header><CREATION_DATE/><ORIGINATOR/></header><body><segment><metadata><OBJECT_NAME>ORBCOMM FM10</OBJECT_NAME><OBJECT_ID>1997-084B</OBJECT_ID><CENTER_NAME>EARTH</CENTER_NAME><REF_FRAME>TEME</REF_FRAME><TIME_SYSTEM>UTC</TIME_SYSTEM><MEAN_ELEMENT_THEORY>SGP4</MEAN_ELEMENT_THEORY></metadata><data><meanElements><EPOCH>2024-12-18T04:11:17.966400</EPOCH><MEAN_MOTION>14.44413091</MEAN_MOTION><ECCENTRICITY>.000315</ECCENTRICITY><INCLINATION>45.0132</INCLINATION><RA_OF_ASC_NODE>158.1690</RA_OF_ASC_NODE><ARG_OF_PERICENTER>25.5471</ARG_OF_PERICENTER><MEAN_ANOMALY>334.5535</MEAN_ANOMALY></meanElements><tleParameters><EPHEMERIS_TYPE>0</EPHEMERIS_TYPE><CLASSIFICATION_TYPE>U</CLASSIFICATION_TYPE><NORAD_CAT_ID>25113</NORAD_CAT_ID><ELEMENT_SET_NO>999</ELEMENT_SET_NO><REV_AT_EPOCH>59033</REV_AT_EPOCH><BSTAR>.10298E-2</BSTAR><MEAN_MOTION_DOT>.3441E-4</MEAN_MOTION_DOT><MEAN_MOTION_DDOT>0</MEAN_MOTION_DDOT></tleParameters></data></segment></body></omm>
<omm id="CCSDS_OMM_VERS" version="2.0">
<header><CREATION_DATE/><ORIGINATOR/></header><body><segment><metadata><OBJECT_NAME>ORBCOMM FM11</OBJECT_NAME><OBJECT_ID>1997-084C</OBJECT_ID><CENTER_NAME>EARTH</CENTER_NAME><REF_FRAME>TEME</REF_FRAME><TIME_SYSTEM>UTC</TIME_SYSTEM><MEAN_ELEMENT_THEORY>SGP4</MEAN_ELEMENT_THEORY></metadata><data><meanElements><EPOCH>2024-12-18T03:34:48.770976</EPOCH><MEAN_MOTION>14.44191108</MEAN_MOTION><ECCENTRICITY>.0004028</ECCENTRICITY><INCLINATION>45.0117</INCLINATION><RA_OF_ASC_NODE>158.6116</RA_OF_ASC_NODE><ARG_OF_PERICENTER>26.6096</ARG_OF_PERICENTER><MEAN_ANOMALY>333.4961</MEAN_ANOMALY></meanElements><tleParameters><EPHEMERIS_TYPE>0</EPHEMERIS_TYPE><CLASSIFICATION_TYPE>U</CLASSIFICATION_TYPE><NORAD_CAT_ID>25114</NORAD_CAT_ID><ELEMENT_SET_NO>999</ELEMENT_SET_NO><REV_AT_EPOCH>41529</REV_AT_EPOCH><BSTAR>.11297E-2</BSTAR><MEAN_MOTION_DOT>.3772E-4</MEAN_MOTION_DOT><MEAN_MOTION_DDOT>0</MEAN_MOTION_DDOT></tleParameters></data></segment></body></omm>
<omm id="CCSDS_OMM_VERS" version="2.0">
<header><CREATION_DATE/><ORIGINATOR/></header><body><segment><metadata><OBJECT_NAME>ORBCOMM FM12</OBJECT_NAME><OBJECT_ID>1997-084D</OBJECT_ID><CENTER_NAME>EARTH</CENTER_NAME><REF_FRAME>TEME</REF_FRAME><TIME_SYSTEM>UTC</TIME_SYSTEM><MEAN_ELEMENT_THEORY>SGP4</MEAN_ELEMENT_THEORY></metadata><data><meanElements><EPOCH>2024-12-18T04:22:58.845792</EPOCH><MEAN_MOTION>14.44194390</MEAN_MOTION><ECCENTRICITY>.0003036</ECCENTRICITY><INCLINATION>45.0128</INCLINATION><RA_OF_ASC_NODE>158.2109</RA_OF_ASC_NODE><ARG_OF_PERICENTER>26.8413</ARG_OF_PERICENTER><MEAN_ANOMALY>333.2594</MEAN_ANOMALY></meanElements><tleParameters><EPHEMERIS_TYPE>0</EPHEMERIS_TYPE><CLASSIFICATION_TYPE>U</CLASSIFICATION_TYPE><NORAD_CAT_ID>25115</NORAD_CAT_ID><ELEMENT_SET_NO>999</ELEMENT_SET_NO><REV_AT_EPOCH>41509</REV_AT_EPOCH><BSTAR>.92322E-3</BSTAR><MEAN_MOTION_DOT>.3055E-4</MEAN_MOTION_DOT><MEAN_MOTION_DDOT>0</MEAN_MOTION_DDOT></tleParameters></data></segment></body></omm>
<omm id="CCSDS_OMM_VERS" version="2.0">
<header><CREATION_DATE/><ORIGINATOR/></header><body><segment><metadata><OBJECT_NAME>ORBCOMM FM09</OBJECT_NAME><OBJECT_ID>1997-084E</OBJECT_ID><CENTER_NAME>EARTH</CENTER_NAME><REF_FRAME>TEME</REF_FRAME><TIME_SYSTEM>UTC</TIME_SYSTEM><MEAN_ELEMENT_THEORY>SGP4</MEAN_ELEMENT_THEORY></metadata><data><meanElements><EPOCH>2024-12-18T04:49:59.383200</EPOCH><MEAN_MOTION>14.44113303</MEAN_MOTION><ECCENTRICITY>.0004243</ECCENTRICITY><INCLINATION>45.0130</INCLINATION><RA_OF_ASC_NODE>158.8966</RA_OF_ASC_NODE><ARG_OF_PERICENTER>5.2135</ARG_OF_PERICENTER><MEAN_ANOMALY>354.8759</MEAN_ANOMALY></meanElements><tleParameters><EPHEMERIS_TYPE>0</EPHEMERIS_TYPE><CLASSIFICATION_TYPE>U</CLASSIFICATION_TYPE><NORAD_CAT_ID>25116</NORAD_CAT_ID><ELEMENT_SET_NO>999</ELEMENT_SET_NO><REV_AT_EPOCH>41530</REV_AT_EPOCH><BSTAR>.96342E-3</BSTAR><MEAN_MOTION_DOT>.319E-4</MEAN_MOTION_DOT><MEAN_MOTION_DDOT>0</MEAN_MOTION_DDOT></tleParameters></data></segment></body></omm>

</ndm>
